OBJECT_NAME,OBJECT_ID,EPOCH,MEAN_MOTION,ECCENTRICITY,INCLINATION,RA_OF_ASC_NODE,ARG_OF_PERICENTER,MEAN_ANOMALY,EPHEMERIS_TYPE,CLASSIFICATION_TYPE,NORAD_CAT_ID,ELEMENT_SET_NO,REV_AT_EPOCH,BSTAR,MEAN_MOTION_DOT,MEAN_MOTION_DDOT
SAUDISAT 5A,2018-102A,2026-06-15T04:48:22.031136,15.28030048,.0010915,97.3072,227.8193,135.1044,225.1080,0,U,43831,999,41537,.17987E-3,.4852E-4,0
SAUDISAT 5B,2018-102C,2026-06-15T05:15:59.037984,15.28287507,.0011579,97.3179,230.9042,137.4482,222.7657,0,U,43833,999,41549,.16345E-3,.4438E-4,0
GAOFEN-10R,2019-066A,2026-06-15T04:43:57.398304,14.83056818,.0006543,98.0496,119.7619,133.0277,227.1485,0,U,44622,999,36208,.1298E-3,.1002E-4,0
CARTOSAT-3,2019-081A,2026-06-15T04:21:16.841088,15.19271652,.0013033,97.4312,228.0802,155.4020,204.7839,0,U,44804,999,36316,.24171E-3,.504E-4,0
GAOFEN-12 01,2019-082A,2026-06-15T04:29:38.807808,14.80457115,.0002332,97.8100,172.6195,72.7243,287.4225,0,U,44819,999,35379,.50804E-4,.338E-5,0
CSG-1,2019-092A,2026-06-15T03:51:54.725184,14.82151663,.0001457,97.8888,349.7929,88.9591,271.1789,0,U,44873,999,35117,.52913E-4,.369E-5,0
NEMO-HD,2020-061F,2026-06-15T04:28:08.249376,15.44557954,.0002391,97.1924,228.1590,83.3022,276.8499,0,U,46277,999,32167,.19988E-3,.9198E-4,0
SENTINEL-6A,2020-086A,2026-06-15T05:04:47.514720,12.80929979,.0007945,66.0393,139.1556,270.2559,89.7546,0,U,46984,999,26007,-.36645E-4,-.69E-6,0
CAS500-1,2021-022A,2026-06-15T05:16:43.666176,15.20188689,.0003882,97.3909,61.5137,311.9604,48.1300,0,U,47932,999,29046,.23107E-3,.4937E-4,0
GAOFEN-12 02,2021-026A,2026-06-15T04:45:15.755328,14.80294726,.0003569,97.9928,164.3868,230.0463,130.0435,0,U,48079,999,28146,.46896E-4,.304E-5,0
PLEIADES NEO 3,2021-034A,2026-06-15T03:49:53.004864,14.81669809,.0001346,97.8937,240.9552,87.3167,272.8200,0,U,48268,999,27735,.13119E-3,.98E-5,0
PLEIADES NEO 4,2021-073E,2026-06-15T04:38:29.525856,14.81673656,.0001414,97.8942,240.9844,85.2949,274.8426,0,U,49070,999,26107,.14502E-3,.1089E-4,0
LANDSAT 9,2021-088A,2026-06-15T03:16:26.262048,14.57095879,.0001361,98.2281,236.3386,86.2055,273.9299,0,U,49260,999,25070,.83892E-4,.332E-5,0
CSG-2,2022-008A,2026-06-15T04:40:30.086688,14.82154303,.0001419,97.8877,349.8213,84.8303,275.3072,0,U,51444,999,23629,.44373E-4,.301E-5,0
GAOFEN-12 03,2022-069A,2026-06-15T05:27:49.608000,14.80031227,.0001944,97.8290,54.1480,103.6390,256.5038,0,U,52912,999,21432,.85893E-4,.599E-5,0
SWOT,2022-173A,2026-06-15T03:07:50.200896,14.00169388,.0000238,77.6107,38.0867,90.3581,269.7598,0,U,54754,999,17886,.31049E-4,.43E-6,0
GAOFEN-12 04,2023-123A,2026-06-15T04:14:52.474272,14.80225369,.0001794,97.9126,84.2236,84.1766,275.9650,0,U,57654,999,15233,.12079E-3,.867E-5,0
PARS 1,2024-039Q,2026-06-15T04:16:34.815072,15.45688640,.0011414,97.4817,147.0346,117.7118,242.5290,0,U,59065,999,12833,.20688E-3,.9916E-4,0
RESURS-P 4,2024-061A,2026-06-15T04:09:25.087392,15.32121238,.0002025,97.2755,114.1071,128.7089,231.4335,0,U,59371,999,12345,.92706E-4,.2799E-4,0
LEGION 1,2024-081A,2026-06-15T04:21:42.686784,15.16654223,.0009719,97.5022,244.0598,24.6102,335.5593,0,U,59625,999,11723,.16007E-3,.3067E-4,0
LEGION 2,2024-081B,2026-06-15T03:29:50.063712,15.16634903,.0010953,97.5023,244.1217,351.2326,8.8714,0,U,59626,999,11723,.18341E-3,.3524E-4,0
ALOS-4 (DAICHI-4),2024-123A,2026-06-15T04:43:54.787296,14.79473169,.0001578,97.9245,263.3988,97.9278,262.2112,0,U,60182,999,10558,.18079E-3,.1299E-4,0
LEGION 3,2024-146A,2026-06-15T03:41:58.598016,15.16024498,.0007397,45.0023,41.4587,158.3724,201.7468,0,U,60452,999,10171,.15648E-3,.2796E-4,0
LEGION 4,2024-146B,2026-06-15T03:46:24.286656,15.16015588,.001393,44.9998,133.3518,297.7476,62.1990,0,U,60453,999,10056,.16734E-3,.3011E-4,0
SENTINEL-2C,2024-157A,2026-06-15T03:28:11.129664,14.30817304,.0001049,98.5692,240.9554,80.9357,279.1944,0,U,60989,999,9269,.51807E-4,.92E-6,0
IONOSFERA-M 1,2024-199A,2026-06-15T03:42:14.963040,14.22753947,.0001892,98.7175,39.3480,113.0738,247.0639,0,U,61735,999,12741,.46555E-4,.6E-6,0
IONOSFERA-M 2,2024-199B,2026-06-15T04:31:38.489088,14.22757177,.0001131,98.7174,39.2926,40.2546,319.8716,0,U,61736,999,13054,.42419E-4,.51E-6,0
PRSC-EO1,2025-012A,2026-06-15T05:07:37.062624,15.17747954,.000431,97.4230,238.7121,259.4073,100.6675,0,U,62725,999,7789,.3139E-3,.6272E-4,0
BIOMASS,2025-090A,2026-06-15T02:59:07.689120,14.67534194,.0001385,98.0739,353.4713,92.9625,267.1738,0,U,63772,999,6038,.16259E-3,.874E-5,0
GOSAT-GW (IBUKI GW),2025-141A,2026-06-15T03:28:22.484352,14.67553736,.0001428,98.0569,103.4949,83.1632,276.9735,0,U,64694,999,5154,.20114E-3,.1093E-4,0
IONOSFERA-M 3,2025-155A,2026-06-15T03:13:11.240832,14.21486143,.000088,98.6024,128.0908,160.9626,199.1584,0,U,64876,999,4611,.36942E-4,.38E-6,0
