SAUDISAT 5A             
1 43831U 18102A   26166.20025499  .00004852  00000+0  17987-3 0  9996
2 43831  97.3072 227.8193 0010915 135.1044 225.1080 15.28030048415374
SAUDISAT 5B             
1 43833U 18102C   26166.21943331  .00004438  00000+0  16345-3 0  9990
2 43833  97.3179 230.9042 0011579 137.4482 222.7657 15.28287507415490
GAOFEN-10R              
1 44622U 19066A   26166.19719211  .00001002  00000+0  12980-3 0  9997
2 44622  98.0496 119.7619 0006543 133.0277 227.1485 14.83056818362083
CARTOSAT-3              
1 44804U 19081A   26166.18144492  .00005040  00000+0  24171-3 0  9999
2 44804  97.4312 228.0802 0013033 155.4020 204.7839 15.19271652363168
GAOFEN-12 01            
1 44819U 19082A   26166.18725472  .00000338  00000+0  50804-4 0  9997
2 44819  97.8100 172.6195 0002332  72.7243 287.4225 14.80457115353792
CSG-1                   
1 44873U 19092A   26166.16105006  .00000369  00000+0  52913-4 0  9998
2 44873  97.8888 349.7929 0001457  88.9591 271.1789 14.82151663351175
NEMO-HD                 
1 46277U 20061F   26166.18620659  .00009198  00000+0  19988-3 0  9997
2 46277  97.1924 228.1590 0002391  83.3022 276.8499 15.44557954321673
SENTINEL-6A             
1 46984U 20086A   26166.21166105 -.00000069  00000+0 -36645-4 0  9994
2 46984  66.0393 139.1556 0007945 270.2559  89.7546 12.80929979260075
CAS500-1                
1 47932U 21022A   26166.21994984  .00004937  00000+0  23107-3 0  9997
2 47932  97.3909  61.5137 0003882 311.9604  48.1300 15.20188689290467
GAOFEN-12 02            
1 48079U 21026A   26166.19809902  .00000304  00000+0  46896-4 0  9991
2 48079  97.9928 164.3868 0003569 230.0463 130.0435 14.80294726281461
PLEIADES NEO 3          
1 48268U 21034A   26166.15964126  .00000980  00000+0  13119-3 0  9997
2 48268  97.8937 240.9552 0001346  87.3167 272.8200 14.81669809277353
PLEIADES NEO 4          
1 49070U 21073E   26166.19339729  .00001089  00000+0  14502-3 0  9999
2 49070  97.8942 240.9844 0001414  85.2949 274.8426 14.81673656261075
LANDSAT 9               
1 49260U 21088A   26166.13641507  .00000332  00000+0  83892-4 0  9999
2 49260  98.2281 236.3386 0001361  86.2055 273.9299 14.57095879250701
CSG-2                   
1 51444U 22008A   26166.19479267  .00000301  00000+0  44373-4 0  9994
2 51444  97.8877 349.8213 0001419  84.8303 275.3072 14.82154303236296
GAOFEN-12 03            
1 52912U 22069A   26166.22765750  .00000599  00000+0  85893-4 0  9992
2 52912  97.8290  54.1480 0001944 103.6390 256.5038 14.80031227214327
SWOT                    
1 54754U 22173A   26166.13044214  .00000043  00000+0  31049-4 0  9997
2 54754  77.6107  38.0867 0000238  90.3581 269.7598 14.00169388178862
GAOFEN-12 04            
1 57654U 23123A   26166.17699623  .00000867  00000+0  12079-3 0  9994
2 57654  97.9126  84.2236 0001794  84.1766 275.9650 14.80225369152339
PARS 1                  
1 59065U 24039Q   26166.17818073  .00009916  00000+0  20688-3 0  9990
2 59065  97.4817 147.0346 0011414 117.7118 242.5290 15.45688640128333
RESURS-P 4              
1 59371U 24061A   26166.17320703  .00002799  00000+0  92706-4 0  9996
2 59371  97.2755 114.1071 0002025 128.7089 231.4335 15.32121238123455
LEGION 1                
1 59625U 24081A   26166.18174406  .00003067  00000+0  16007-3 0  9996
2 59625  97.5022 244.0598 0009719  24.6102 335.5593 15.16654223117239
LEGION 2                
1 59626U 24081B   26166.14571833  .00003524  00000+0  18341-3 0  9999
2 59626  97.5023 244.1217 0010953 351.2326   8.8714 15.16634903117237
ALOS-4 (DAICHI-4)       
1 60182U 24123A   26166.19716189  .00001299  00000+0  18079-3 0  9990
2 60182  97.9245 263.3988 0001578  97.9278 262.2112 14.79473169105583
LEGION 3                
1 60452U 24146A   26166.15415044  .00002796  00000+0  15648-3 0  9999
2 60452  45.0023  41.4587 0007397 158.3724 201.7468 15.16024498101716
LEGION 4                
1 60453U 24146B   26166.15722554  .00003011  00000+0  16734-3 0  9995
2 60453  44.9998 133.3518 0013930 297.7476  62.1990 15.16015588100564
SENTINEL-2C             
1 60989U 24157A   26166.14457326  .00000092  00000+0  51807-4 0  9999
2 60989  98.5692 240.9554 0001049  80.9357 279.1944 14.30817304 92691
IONOSFERA-M 1           
1 61735U 24199A   26166.15433985  .00000060  00000+0  46555-4 0  9990
2 61735  98.7175  39.3480 0001892 113.0738 247.0639 14.22753947127411
IONOSFERA-M 2           
1 61736U 24199B   26166.18863992  .00000051  00000+0  42419-4 0  9994
2 61736  98.7174  39.2926 0001131  40.2546 319.8716 14.22757177130540
PRSC-EO1                
1 62725U 25012A   26166.21362341  .00006272  00000+0  31390-3 0  9990
2 62725  97.4230 238.7121 0004310 259.4073 100.6675 15.17747954 77897
BIOMASS                 
1 63772U 25090A   26166.12439455  .00000874  00000+0  16259-3 0  9999
2 63772  98.0739 353.4713 0001385  92.9625 267.1738 14.67534194 60384
GOSAT-GW (IBUKI GW)     
1 64694U 25141A   26166.14470468  .00001093  00000+0  20114-3 0  9990
2 64694  98.0569 103.4949 0001428  83.1632 276.9735 14.67553736 51547
IONOSFERA-M 3           
1 64876U 25155A   26166.13415788  .00000038  00000+0  36942-4 0  9995
2 64876  98.6024 128.0908 0000880 160.9626 199.1584 14.21486143 46119
